[{"OBJECT_NAME":"STARLINK-2101","OBJECT_ID":"2021-005AJ","EPOCH":"2025-09-11T22:43:44.224896","MEAN_MOTION":15.06401368,"ECCENTRICITY":0.00015244,"INCLINATION":53.0547,"RA_OF_ASC_NODE":119.1118,"ARG_OF_PERICENTER":90.909,"MEAN_ANOMALY":269.2073,"EPHEMERIS_TYPE":0,"CLASSIFICATION_TYPE":"U","NORAD_CAT_ID":47381,"ELEMENT_SET_NO":999,"REV_AT_EPOCH":25645,"BSTAR":5.0176876e-5,"MEAN_MOTION_DOT":4.66e-6,"MEAN_MOTION_DDOT":0},{"OBJECT_NAME":"STARLINK-2102","OBJECT_ID":"2021-005AK","EPOCH":"2025-09-11T22:09:53.498304","MEAN_MOTION":15.06400369,"ECCENTRICITY":0.0001629,"INCLINATION":53.055,"RA_OF_ASC_NODE":114.1339,"ARG_OF_PERICENTER":116.3211,"MEAN_ANOMALY":243.7946,"EPHEMERIS_TYPE":0,"CLASSIFICATION_TYPE":"U","NORAD_CAT_ID":47382,"ELEMENT_SET_NO":999,"REV_AT_EPOCH":25651,"BSTAR":1.6984192e-5,"MEAN_MOTION_DOT":-2.9e-7,"MEAN_MOTION_DDOT":0},{"OBJECT_NAME":"STARLINK-2103","OBJECT_ID":"2021-005AL","EPOCH":"2025-09-11T21:39:25.228512","MEAN_MOTION":15.06417833,"ECCENTRICITY":0.00015998,"INCLINATION":53.0536,"RA_OF_ASC_NODE":104.5068,"ARG_OF_PERICENTER":83.2066,"MEAN_ANOMALY":276.9105,"EPHEMERIS_TYPE":0,"CLASSIFICATION_TYPE":"U","NORAD_CAT_ID":47383,"ELEMENT_SET_NO":999,"REV_AT_EPOCH":25665,"BSTAR":0.00043657164,"MEAN_MOTION_DOT":6.23e-5,"MEAN_MOTION_DDOT":0},{"OBJECT_NAME":"STARLINK-2104","OBJECT_ID":"2021-005AM","EPOCH":"2025-09-12T13:44:06.148032","MEAN_MOTION":15.06392899,"ECCENTRICITY":0.00013411,"INCLINATION":53.0541,"RA_OF_ASC_NODE":111.4606,"ARG_OF_PERICENTER":96.8688,"MEAN_ANOMALY":263.2453,"EPHEMERIS_TYPE":0,"CLASSIFICATION_TYPE":"U","NORAD_CAT_ID":47384,"ELEMENT_SET_NO":999,"REV_AT_EPOCH":25661,"BSTAR":5.5165784e-5,"MEAN_MOTION_DOT":5.4e-6,"MEAN_MOTION_DDOT":0},{"OBJECT_NAME":"STARLINK-2105","OBJECT_ID":"2021-005AN","EPOCH":"2025-09-11T21:43:20.325504","MEAN_MOTION":15.06407948,"ECCENTRICITY":0.0001404,"INCLINATION":53.0513,"RA_OF_ASC_NODE":114.2116,"ARG_OF_PERICENTER":138.581,"MEAN_ANOMALY":221.5285,"EPHEMERIS_TYPE":0,"CLASSIFICATION_TYPE":"U","NORAD_CAT_ID":47385,"ELEMENT_SET_NO":999,"REV_AT_EPOCH":25651,"BSTAR":2.0793702e-5,"MEAN_MOTION_DOT":2.8e-7,"MEAN_MOTION_DDOT":0},{"OBJECT_NAME":"STARLINK-2106","OBJECT_ID":"2021-005AP","EPOCH":"2025-09-11T22:25:48.533664","MEAN_MOTION":15.06400252,"ECCENTRICITY":0.00014315,"INCLINATION":53.055,"RA_OF_ASC_NODE":114.0826,"ARG_OF_PERICENTER":92.3818,"MEAN_ANOMALY":267.7335,"EPHEMERIS_TYPE":0,"CLASSIFICATION_TYPE":"U","NORAD_CAT_ID":47386,"ELEMENT_SET_NO":999,"REV_AT_EPOCH":25652,"BSTAR":2.2097065e-5,"MEAN_MOTION_DOT":4.8e-7,"MEAN_MOTION_DDOT":0},{"OBJECT_NAME":"STARLINK-2109","OBJECT_ID":"2021-005AR","EPOCH":"2025-09-12T09:35:55.364640","MEAN_MOTION":15.06396651,"ECCENTRICITY":0.00013426,"INCLINATION":53.0544,"RA_OF_ASC_NODE":141.995,"ARG_OF_PERICENTER":90.0132,"MEAN_ANOMALY":270.101,"EPHEMERIS_TYPE":0,"CLASSIFICATION_TYPE":"U","NORAD_CAT_ID":47388,"ELEMENT_SET_NO":999,"REV_AT_EPOCH":25616,"BSTAR":5.112198e-5,"MEAN_MOTION_DOT":4.8e-6,"MEAN_MOTION_DDOT":0},{"OBJECT_NAME":"STARLINK-2110","OBJECT_ID":"2021-005AS","EPOCH":"2025-09-11T21:56:34.664640","MEAN_MOTION":15.06400979,"ECCENTRICITY":0.00013198,"INCLINATION":53.0546,"RA_OF_ASC_NODE":124.1623,"ARG_OF_PERICENTER":92.0308,"MEAN_ANOMALY":268.0832,"EPHEMERIS_TYPE":0,"CLASSIFICATION_TYPE":"U","NORAD_CAT_ID":47389,"ELEMENT_SET_NO":999,"REV_AT_EPOCH":25637,"BSTAR":8.1302941e-5,"MEAN_MOTION_DOT":9.3e-6,"MEAN_MOTION_DDOT":0},{"OBJECT_NAME":"STARLINK-2111","OBJECT_ID":"2021-005AT","EPOCH":"2025-09-11T21:49:59.105568","MEAN_MOTION":15.06413889,"ECCENTRICITY":0.00010535,"INCLINATION":53.0524,"RA_OF_ASC_NODE":144.1937,"ARG_OF_PERICENTER":78.4144,"MEAN_ANOMALY":281.6963,"EPHEMERIS_TYPE":0,"CLASSIFICATION_TYPE":"U","NORAD_CAT_ID":47390,"ELEMENT_SET_NO":999,"REV_AT_EPOCH":25609,"BSTAR":0.00043581453,"MEAN_MOTION_DOT":6.218e-5,"MEAN_MOTION_DDOT":0},{"OBJECT_NAME":"STARLINK-2112","OBJECT_ID":"2021-005AU","EPOCH":"2025-09-11T22:03:12.683520","MEAN_MOTION":15.0640301,"ECCENTRICITY":0.00014383,"INCLINATION":53.0542,"RA_OF_ASC_NODE":114.1543,"ARG_OF_PERICENTER":87.3103,"MEAN_ANOMALY":272.8051,"EPHEMERIS_TYPE":0,"CLASSIFICATION_TYPE":"U","NORAD_CAT_ID":47391,"ELEMENT_SET_NO":999,"REV_AT_EPOCH":25651,"BSTAR":0.00010066302,"MEAN_MOTION_DOT":1.218e-5,"MEAN_MOTION_DDOT":0},{"OBJECT_NAME":"STARLINK-2113","OBJECT_ID":"2021-005AV","EPOCH":"2025-09-11T22:04:33.821760","MEAN_MOTION":15.06407249,"ECCENTRICITY":0.00014415,"INCLINATION":53.0536,"RA_OF_ASC_NODE":114.1496,"ARG_OF_PERICENTER":81.5353,"MEAN_ANOMALY":278.5799,"EPHEMERIS_TYPE":0,"CLASSIFICATION_TYPE":"U","NORAD_CAT_ID":47392,"ELEMENT_SET_NO":999,"REV_AT_EPOCH":25651,"BSTAR":2.106311e-6,"MEAN_MOTION_DOT":-2.5e-6,"MEAN_MOTION_DDOT":0},{"OBJECT_NAME":"STARLINK-2114","OBJECT_ID":"2021-005AW","EPOCH":"2025-09-12T13:02:19.527648","MEAN_MOTION":15.06393798,"ECCENTRICITY":0.00013826,"INCLINATION":53.0546,"RA_OF_ASC_NODE":86.7036,"ARG_OF_PERICENTER":91.6056,"MEAN_ANOMALY":268.5091,"EPHEMERIS_TYPE":0,"CLASSIFICATION_TYPE":"U","NORAD_CAT_ID":47393,"ELEMENT_SET_NO":999,"REV_AT_EPOCH":25695,"BSTAR":4.7731314e-5,"MEAN_MOTION_DOT":4.29e-6,"MEAN_MOTION_DDOT":0},{"OBJECT_NAME":"STARLINK-2117","OBJECT_ID":"2021-005AY","EPOCH":"2025-09-11T21:34:04.766592","MEAN_MOTION":15.06377668,"ECCENTRICITY":0.00013704,"INCLINATION":53.0545,"RA_OF_ASC_NODE":104.2437,"ARG_OF_PERICENTER":89.8978,"MEAN_ANOMALY":270.2168,"EPHEMERIS_TYPE":0,"CLASSIFICATION_TYPE":"U","NORAD_CAT_ID":47395,"ELEMENT_SET_NO":999,"REV_AT_EPOCH":25665,"BSTAR":0.00018017618,"MEAN_MOTION_DOT":2.402e-5,"MEAN_MOTION_DDOT":0},{"OBJECT_NAME":"STARLINK-2119","OBJECT_ID":"2021-005BA","EPOCH":"2025-09-12T09:41:13.946496","MEAN_MOTION":15.0639491,"ECCENTRICITY":0.00013793,"INCLINATION":53.0541,"RA_OF_ASC_NODE":141.9799,"ARG_OF_PERICENTER":88.7419,"MEAN_ANOMALY":271.3728,"EPHEMERIS_TYPE":0,"CLASSIFICATION_TYPE":"U","NORAD_CAT_ID":47397,"ELEMENT_SET_NO":999,"REV_AT_EPOCH":25617,"BSTAR":0.00016295181,"MEAN_MOTION_DOT":2.146e-5,"MEAN_MOTION_DDOT":0},{"OBJECT_NAME":"STARLINK-2121","OBJECT_ID":"2021-005BC","EPOCH":"2025-09-11T22:45:45.350784","MEAN_MOTION":15.06400478,"ECCENTRICITY":0.00014828,"INCLINATION":53.0552,"RA_OF_ASC_NODE":124.2612,"ARG_OF_PERICENTER":106.4071,"MEAN_ANOMALY":253.7081,"EPHEMERIS_TYPE":0,"CLASSIFICATION_TYPE":"U","NORAD_CAT_ID":47399,"ELEMENT_SET_NO":999,"REV_AT_EPOCH":25637,"BSTAR":5.0925926e-5,"MEAN_MOTION_DOT":4.77e-6,"MEAN_MOTION_DDOT":0},{"OBJECT_NAME":"STARLINK-2122","OBJECT_ID":"2021-005BD","EPOCH":"2025-09-12T13:45:23.609088","MEAN_MOTION":15.06397206,"ECCENTRICITY":0.00011299,"INCLINATION":53.0542,"RA_OF_ASC_NODE":101.2232,"ARG_OF_PERICENTER":87.9154,"MEAN_ANOMALY":272.1965,"EPHEMERIS_TYPE":0,"CLASSIFICATION_TYPE":"U","NORAD_CAT_ID":47400,"ELEMENT_SET_NO":999,"REV_AT_EPOCH":25675,"BSTAR":0.00014914242,"MEAN_MOTION_DOT":1.941e-5,"MEAN_MOTION_DDOT":0}]
