STARLINK-2101           
1 47381U 21005AJ  25254.94703964  .00000466  00000+0  50177-4 0  9990
2 47381  53.0547 119.1118 0001524  90.9090 269.2073 15.06401368256455
STARLINK-2102           
1 47382U 21005AK  25254.92353586 -.00000029  00000+0  16984-4 0  9994
2 47382  53.0550 114.1339 0001629 116.3211 243.7946 15.06400369256517
STARLINK-2103           
1 47383U 21005AL  25254.90237533  .00006230  00000+0  43657-3 0  9991
2 47383  53.0536 104.5068 0001599  83.2066 276.9105 15.06417833256654
STARLINK-2104           
1 47384U 21005AM  25255.57229338  .00000540  00000+0  55166-4 0  9997
2 47384  53.0541 111.4606 0001341  96.8688 263.2453 15.06392899256616
STARLINK-2105           
1 47385U 21005AN  25254.90509636  .00000028  00000+0  20794-4 0  9996
2 47385  53.0513 114.2116 0001404 138.5810 221.5285 15.06407948256515
STARLINK-2106           
1 47386U 21005AP  25254.93458951  .00000048  00000+0  22097-4 0  9993
2 47386  53.0550 114.0826 0001431  92.3818 267.7335 15.06400252256528
STARLINK-2109           
1 47388U 21005AR  25255.39994635  .00000480  00000+0  51122-4 0  9991
2 47388  53.0544 141.9950 0001342  90.0132 270.1010 15.06396651256160
STARLINK-2110           
1 47389U 21005AS  25254.91429010  .00000930  00000+0  81303-4 0  9993
2 47389  53.0546 124.1623 0001319  92.0308 268.0832 15.06400979256374
STARLINK-2111           
1 47390U 21005AT  25254.90971187  .00006218  00000+0  43581-3 0  9991
2 47390  53.0524 144.1937 0001053  78.4144 281.6963 15.06413889256092
STARLINK-2112           
1 47391U 21005AU  25254.91889680  .00001218  00000+0  10066-3 0  9996
2 47391  53.0542 114.1543 0001438  87.3103 272.8051 15.06403010256516
STARLINK-2113           
1 47392U 21005AV  25254.91983590 -.00000250  00000+0  21063-5 0  9999
2 47392  53.0536 114.1496 0001441  81.5353 278.5799 15.06407249256514
STARLINK-2114           
1 47393U 21005AW  25255.54328157  .00000429  00000+0  47731-4 0  9998
2 47393  53.0546  86.7036 0001382  91.6056 268.5091 15.06393798256951
STARLINK-2117           
1 47395U 21005AY  25254.89866628  .00002402  00000+0  18018-3 0  9995
2 47395  53.0545 104.2437 0001370  89.8978 270.2168 15.06377668256652
STARLINK-2119           
1 47397U 21005BA  25255.40363364  .00002146  00000+0  16295-3 0  9994
2 47397  53.0541 141.9799 0001379  88.7419 271.3728 15.06394910256176
STARLINK-2121           
1 47399U 21005BC  25254.94844156  .00000477  00000+0  50926-4 0  9992
2 47399  53.0552 124.2612 0001482 106.4071 253.7081 15.06400478256370
STARLINK-2122           
1 47400U 21005BD  25255.57318992  .00001941  00000+0  14914-3 0  9992
2 47400  53.0542 101.2232 0001129  87.9154 272.1965 15.06397206256750
